[{"OBJECT_NAME":"HAWK-A","OBJECT_ID":"2018-099H","EPOCH":"2026-03-09T16:13:51.062880","MEAN_MOTION":15.23231043,"ECCENTRICITY":0.00342596,"INCLINATION":97.4051,"RA_OF_ASC_NODE":122.2425,"ARG_OF_PERICENTER":275.5523,"MEAN_ANOMALY":84.1807,"EPHEMERIS_TYPE":0,"CLASSIFICATION_TYPE":"U","NORAD_CAT_ID":43765,"ELEMENT_SET_NO":999,"REV_AT_EPOCH":39794,"BSTAR":0.00036104215,"MEAN_MOTION_DOT":8.617e-5,"MEAN_MOTION_DDOT":0},{"OBJECT_NAME":"STARLINK-31981","OBJECT_ID":"2024-111V","EPOCH":"2026-03-09T10:36:37.839168","MEAN_MOTION":15.30206449,"ECCENTRICITY":0.00011663,"INCLINATION":53.1608,"RA_OF_ASC_NODE":76.9088,"ARG_OF_PERICENTER":80.4858,"MEAN_ANOMALY":279.6274,"EPHEMERIS_TYPE":0,"CLASSIFICATION_TYPE":"U","NORAD_CAT_ID":60035,"ELEMENT_SET_NO":999,"REV_AT_EPOCH":9892,"BSTAR":6.121863e-5,"MEAN_MOTION_DOT":1.455e-5,"MEAN_MOTION_DDOT":0}]
